{
  "norad_id": 55820,
  "name": "ONEWEB-0660",
  "history": [
    {
      "epoch": "2026-03-28T21:33:51.182784Z",
      "apogee_km": 1207.2015950287123,
      "perigee_km": 1204.3887145924919,
      "latitude_deg": -3.673049062959319e-05,
      "longitude_deg": 155.94589018994915,
      "height_km": 1208.8108967759338,
      "semi_major_axis_km": 7583.932154810602,
      "eccentricity": 0.00018545,
      "inclination_deg": 87.8954,
      "raan_deg": 305.7215,
      "arg_perigee_deg": 95.0998,
      "mean_anomaly_deg": 265.0343,
      "mean_motion_rev_day": 13.14501552
    },
    {
      "epoch": "2026-03-29T03:02:40.910496Z",
      "apogee_km": 1207.2130857446546,
      "perigee_km": 1204.3736622126353,
      "latitude_deg": -3.379818217143426e-05,
      "longitude_deg": 73.46811620933845,
      "height_km": 1208.8123005151313,
      "semi_major_axis_km": 7583.930373978645,
      "eccentricity": 0.0001872,
      "inclination_deg": 87.8952,
      "raan_deg": 305.676,
      "arg_perigee_deg": 95.1823,
      "mean_anomaly_deg": 264.952,
      "mean_motion_rev_day": 13.14502015
    },
    {
      "epoch": "2026-03-30T00:57:59.900832Z",
      "apogee_km": 1207.2262774313604,
      "perigee_km": 1204.3641014230707,
      "latitude_deg": 4.848295713122355e-07,
      "longitude_deg": 103.55638939590895,
      "height_km": 1208.8189738721635,
      "semi_major_axis_km": 7583.932189427215,
      "eccentricity": 0.0001887,
      "inclination_deg": 87.895,
      "raan_deg": 305.4937,
      "arg_perigee_deg": 95.3376,
      "mean_anomaly_deg": 264.7969,
      "mean_motion_rev_day": 13.14501543
    }
  ]
}